[{"OBJECT_NAME":"ONEWEB-0186","OBJECT_ID":"2021-031V","EPOCH":"2026-01-25T05:51:27.820800","MEAN_MOTION":13.14504317,"ECCENTRICITY":0.00017641,"INCLINATION":87.9032,"RA_OF_ASC_NODE":318.1836,"ARG_OF_PERICENTER":82.14,"MEAN_ANOMALY":277.993,"EPHEMERIS_TYPE":0,"CLASSIFICATION_TYPE":"U","NORAD_CAT_ID":48229,"ELEMENT_SET_NO":999,"REV_AT_EPOCH":22960,"BSTAR":0.00041153409,"MEAN_MOTION_DOT":1.65e-6,"MEAN_MOTION_DDOT":0},{"OBJECT_NAME":"ONEWEB-0181","OBJECT_ID":"2021-031W","EPOCH":"2026-01-25T07:09:05.770944","MEAN_MOTION":13.145027,"ECCENTRICITY":0.0001658,"INCLINATION":87.9019,"RA_OF_ASC_NODE":318.2205,"ARG_OF_PERICENTER":84.0319,"MEAN_ANOMALY":276.1,"EPHEMERIS_TYPE":0,"CLASSIFICATION_TYPE":"U","NORAD_CAT_ID":48230,"ELEMENT_SET_NO":999,"REV_AT_EPOCH":22946,"BSTAR":-0.00056441645,"MEAN_MOTION_DOT":-1.96e-6,"MEAN_MOTION_DDOT":0},{"OBJECT_NAME":"ONEWEB-0188","OBJECT_ID":"2021-031X","EPOCH":"2026-01-25T06:14:16.363104","MEAN_MOTION":13.14502351,"ECCENTRICITY":0.0001761,"INCLINATION":87.902,"RA_OF_ASC_NODE":318.2257,"ARG_OF_PERICENTER":79.3381,"MEAN_ANOMALY":280.7947,"EPHEMERIS_TYPE":0,"CLASSIFICATION_TYPE":"U","NORAD_CAT_ID":48231,"ELEMENT_SET_NO":999,"REV_AT_EPOCH":22936,"BSTAR":-0.00010606302,"MEAN_MOTION_DOT":-2.7e-7,"MEAN_MOTION_DDOT":0},{"OBJECT_NAME":"ONEWEB-0220","OBJECT_ID":"2021-031Y","EPOCH":"2026-01-25T07:11:21.465600","MEAN_MOTION":13.14503155,"ECCENTRICITY":0.00019067,"INCLINATION":87.9036,"RA_OF_ASC_NODE":318.1711,"ARG_OF_PERICENTER":84.2425,"MEAN_ANOMALY":275.8922,"EPHEMERIS_TYPE":0,"CLASSIFICATION_TYPE":"U","NORAD_CAT_ID":48232,"ELEMENT_SET_NO":999,"REV_AT_EPOCH":22963,"BSTAR":-0.00094903565,"MEAN_MOTION_DOT":-3.39e-6,"MEAN_MOTION_DDOT":0},{"OBJECT_NAME":"ONEWEB-0165","OBJECT_ID":"2021-031Z","EPOCH":"2026-01-25T06:02:52.233216","MEAN_MOTION":13.14504299,"ECCENTRICITY":0.00015093,"INCLINATION":87.9021,"RA_OF_ASC_NODE":318.2015,"ARG_OF_PERICENTER":87.1092,"MEAN_ANOMALY":273.0211,"EPHEMERIS_TYPE":0,"CLASSIFICATION_TYPE":"U","NORAD_CAT_ID":48233,"ELEMENT_SET_NO":999,"REV_AT_EPOCH":22958,"BSTAR":0.00075470209,"MEAN_MOTION_DOT":2.93e-6,"MEAN_MOTION_DDOT":0},{"OBJECT_NAME":"ONEWEB-0199","OBJECT_ID":"2021-031AA","EPOCH":"2026-01-25T07:29:38.425056","MEAN_MOTION":13.14503772,"ECCENTRICITY":0.00017318,"INCLINATION":87.9031,"RA_OF_ASC_NODE":318.1688,"ARG_OF_PERICENTER":73.1888,"MEAN_ANOMALY":286.9432,"EPHEMERIS_TYPE":0,"CLASSIFICATION_TYPE":"U","NORAD_CAT_ID":48234,"ELEMENT_SET_NO":999,"REV_AT_EPOCH":22949,"BSTAR":-0.00039409281,"MEAN_MOTION_DOT":-1.33e-6,"MEAN_MOTION_DDOT":0},{"OBJECT_NAME":"ONEWEB-0203","OBJECT_ID":"2021-031AB","EPOCH":"2026-01-25T07:15:56.026656","MEAN_MOTION":13.14504198,"ECCENTRICITY":0.0001499,"INCLINATION":87.9027,"RA_OF_ASC_NODE":318.1701,"ARG_OF_PERICENTER":76.6553,"MEAN_ANOMALY":283.4744,"EPHEMERIS_TYPE":0,"CLASSIFICATION_TYPE":"U","NORAD_CAT_ID":48235,"ELEMENT_SET_NO":999,"REV_AT_EPOCH":22950,"BSTAR":-0.00066707387,"MEAN_MOTION_DOT":-2.35e-6,"MEAN_MOTION_DDOT":0},{"OBJECT_NAME":"ONEWEB-0197","OBJECT_ID":"2021-031AC","EPOCH":"2026-01-25T06:39:12.147552","MEAN_MOTION":13.14502832,"ECCENTRICITY":0.00020472,"INCLINATION":87.9032,"RA_OF_ASC_NODE":318.1747,"ARG_OF_PERICENTER":76.8038,"MEAN_ANOMALY":283.332,"EPHEMERIS_TYPE":0,"CLASSIFICATION_TYPE":"U","NORAD_CAT_ID":48236,"ELEMENT_SET_NO":999,"REV_AT_EPOCH":22941,"BSTAR":-0.00025068051,"MEAN_MOTION_DOT":-8.0e-7,"MEAN_MOTION_DDOT":0},{"OBJECT_NAME":"ONEWEB-0194","OBJECT_ID":"2021-031AD","EPOCH":"2026-01-25T06:09:43.862688","MEAN_MOTION":13.1450347,"ECCENTRICITY":0.00016306,"INCLINATION":87.9029,"RA_OF_ASC_NODE":318.196,"ARG_OF_PERICENTER":70.8394,"MEAN_ANOMALY":289.2912,"EPHEMERIS_TYPE":0,"CLASSIFICATION_TYPE":"U","NORAD_CAT_ID":48237,"ELEMENT_SET_NO":999,"REV_AT_EPOCH":22958,"BSTAR":0.00077917185,"MEAN_MOTION_DOT":3.02e-6,"MEAN_MOTION_DDOT":0},{"OBJECT_NAME":"ONEWEB-0193","OBJECT_ID":"2021-031AE","EPOCH":"2026-01-25T06:32:33.310464","MEAN_MOTION":13.14503628,"ECCENTRICITY":0.00015971,"INCLINATION":87.9025,"RA_OF_ASC_NODE":318.1862,"ARG_OF_PERICENTER":61.9573,"MEAN_ANOMALY":298.1718,"EPHEMERIS_TYPE":0,"CLASSIFICATION_TYPE":"U","NORAD_CAT_ID":48238,"ELEMENT_SET_NO":999,"REV_AT_EPOCH":22953,"BSTAR":0.00019194999,"MEAN_MOTION_DOT":8.4e-7,"MEAN_MOTION_DDOT":0},{"OBJECT_NAME":"ONEWEB-0191","OBJECT_ID":"2021-031AF","EPOCH":"2026-01-25T06:48:32.056704","MEAN_MOTION":13.14503759,"ECCENTRICITY":0.0001763,"INCLINATION":87.9035,"RA_OF_ASC_NODE":318.1769,"ARG_OF_PERICENTER":76.2147,"MEAN_ANOMALY":283.9179,"EPHEMERIS_TYPE":0,"CLASSIFICATION_TYPE":"U","NORAD_CAT_ID":48239,"ELEMENT_SET_NO":999,"REV_AT_EPOCH":22939,"BSTAR":-0.00058834683,"MEAN_MOTION_DOT":-2.05e-6,"MEAN_MOTION_DDOT":0},{"OBJECT_NAME":"ONEWEB-0195","OBJECT_ID":"2021-031AG","EPOCH":"2026-01-25T06:15:24.936192","MEAN_MOTION":13.14502012,"ECCENTRICITY":0.00014998,"INCLINATION":87.9029,"RA_OF_ASC_NODE":318.1793,"ARG_OF_PERICENTER":90.358,"MEAN_ANOMALY":269.7722,"EPHEMERIS_TYPE":0,"CLASSIFICATION_TYPE":"U","NORAD_CAT_ID":48240,"ELEMENT_SET_NO":999,"REV_AT_EPOCH":22937,"BSTAR":0.00070950158,"MEAN_MOTION_DOT":2.76e-6,"MEAN_MOTION_DDOT":0},{"OBJECT_NAME":"ONEWEB-0201","OBJECT_ID":"2021-031AH","EPOCH":"2026-01-24T19:00:48.989088","MEAN_MOTION":13.14505457,"ECCENTRICITY":0.00019794,"INCLINATION":87.9021,"RA_OF_ASC_NODE":318.3049,"ARG_OF_PERICENTER":85.5537,"MEAN_ANOMALY":274.5818,"EPHEMERIS_TYPE":0,"CLASSIFICATION_TYPE":"U","NORAD_CAT_ID":48241,"ELEMENT_SET_NO":999,"REV_AT_EPOCH":22954,"BSTAR":0.0002967924,"MEAN_MOTION_DOT":1.23e-6,"MEAN_MOTION_DDOT":0},{"OBJECT_NAME":"ONEWEB-0207","OBJECT_ID":"2021-031AJ","EPOCH":"2026-01-25T07:19:21.535968","MEAN_MOTION":13.14502174,"ECCENTRICITY":0.00019474,"INCLINATION":87.9032,"RA_OF_ASC_NODE":318.1706,"ARG_OF_PERICENTER":82.7553,"MEAN_ANOMALY":277.3798,"EPHEMERIS_TYPE":0,"CLASSIFICATION_TYPE":"U","NORAD_CAT_ID":48242,"ELEMENT_SET_NO":999,"REV_AT_EPOCH":22952,"BSTAR":-0.00022350413,"MEAN_MOTION_DOT":-7.0e-7,"MEAN_MOTION_DDOT":0},{"OBJECT_NAME":"ONEWEB-0208","OBJECT_ID":"2021-031AK","EPOCH":"2026-01-25T06:53:05.348544","MEAN_MOTION":13.14502641,"ECCENTRICITY":0.00015463,"INCLINATION":87.9032,"RA_OF_ASC_NODE":318.1873,"ARG_OF_PERICENTER":85.7208,"MEAN_ANOMALY":274.4098,"EPHEMERIS_TYPE":0,"CLASSIFICATION_TYPE":"U","NORAD_CAT_ID":48243,"ELEMENT_SET_NO":999,"REV_AT_EPOCH":22953,"BSTAR":-0.0010401054,"MEAN_MOTION_DOT":-3.73e-6,"MEAN_MOTION_DDOT":0},{"OBJECT_NAME":"ONEWEB-0200","OBJECT_ID":"2021-031AL","EPOCH":"2026-01-25T06:00:33.820416","MEAN_MOTION":13.14503198,"ECCENTRICITY":0.00016983,"INCLINATION":87.903,"RA_OF_ASC_NODE":318.1838,"ARG_OF_PERICENTER":81.6959,"MEAN_ANOMALY":278.4363,"EPHEMERIS_TYPE":0,"CLASSIFICATION_TYPE":"U","NORAD_CAT_ID":48244,"ELEMENT_SET_NO":999,"REV_AT_EPOCH":22945,"BSTAR":0.00012343442,"MEAN_MOTION_DOT":5.9e-7,"MEAN_MOTION_DDOT":0}]
