ONEWEB-0186             
1 48229U 21031V   26025.24407200  .00000165  00000+0  41153-3 0  9994
2 48229  87.9032 318.1836 0001764  82.1400 277.9930 13.14504317229604
ONEWEB-0181             
1 48230U 21031W   26025.29798346 -.00000196  00000+0 -56442-3 0  9998
2 48230  87.9019 318.2205 0001658  84.0319 276.1000 13.14502700229461
ONEWEB-0188             
1 48231U 21031X   26025.25991161 -.00000027  00000+0 -10606-3 0  9990
2 48231  87.9020 318.2257 0001761  79.3381 280.7947 13.14502351229364
ONEWEB-0220             
1 48232U 21031Y   26025.29955400 -.00000339  00000+0 -94904-3 0  9990
2 48232  87.9036 318.1711 0001906  84.2425 275.8922 13.14503155229632
ONEWEB-0165             
1 48233U 21031Z   26025.25199344  .00000293  00000+0  75470-3 0  9998
2 48233  87.9021 318.2015 0001509  87.1092 273.0211 13.14504299229581
ONEWEB-0199             
1 48234U 21031AA  26025.31225029 -.00000133  00000+0 -39409-3 0  9993
2 48234  87.9031 318.1688 0001731  73.1888 286.9432 13.14503772229496
ONEWEB-0203             
1 48235U 21031AB  26025.30273179 -.00000235  00000+0 -66707-3 0  9996
2 48235  87.9027 318.1701 0001499  76.6553 283.4744 13.14504198229509
ONEWEB-0197             
1 48236U 21031AC  26025.27722393 -.00000080  00000+0 -25068-3 0  9993
2 48236  87.9032 318.1747 0002047  76.8038 283.3320 13.14502832229418
ONEWEB-0194             
1 48237U 21031AD  26025.25675767  .00000302  00000+0  77917-3 0  9999
2 48237  87.9029 318.1960 0001630  70.8394 289.2912 13.14503470229587
ONEWEB-0193             
1 48238U 21031AE  26025.27260776  .00000084  00000+0  19195-3 0  9993
2 48238  87.9025 318.1862 0001597  61.9573 298.1718 13.14503628229530
ONEWEB-0191             
1 48239U 21031AF  26025.28370436 -.00000205  00000+0 -58835-3 0  9991
2 48239  87.9035 318.1769 0001763  76.2147 283.9179 13.14503759229391
ONEWEB-0195             
1 48240U 21031AG  26025.26070528  .00000276  00000+0  70950-3 0  9998
2 48240  87.9029 318.1793 0001499  90.3580 269.7722 13.14502012229372
ONEWEB-0201             
1 48241U 21031AH  26024.79223367  .00000123  00000+0  29679-3 0  9990
2 48241  87.9021 318.3049 0001979  85.5537 274.5818 13.14505457229547
ONEWEB-0207             
1 48242U 21031AJ  26025.30511037 -.00000070  00000+0 -22350-3 0  9995
2 48242  87.9032 318.1706 0001947  82.7553 277.3798 13.14502174229529
ONEWEB-0208             
1 48243U 21031AK  26025.28686746 -.00000373  00000+0 -10401-2 0  9992
2 48243  87.9032 318.1873 0001546  85.7208 274.4098 13.14502641229531
ONEWEB-0200             
1 48244U 21031AL  26025.25039144  .00000059  00000+0  12343-3 0  9991
2 48244  87.9030 318.1838 0001698  81.6959 278.4363 13.14503198229455
